[{"OBJECT_NAME":"OBJECT B","OBJECT_ID":"2024-092B","EPOCH":"2026-03-09T22:35:16.756224","MEAN_MOTION":15.26654665,"ECCENTRICITY":0.00097063,"INCLINATION":97.6334,"RA_OF_ASC_NODE":195.5822,"ARG_OF_PERICENTER":166.5945,"MEAN_ANOMALY":193.5553,"EPHEMERIS_TYPE":0,"CLASSIFICATION_TYPE":"U","NORAD_CAT_ID":59774,"ELEMENT_SET_NO":999,"REV_AT_EPOCH":10038,"BSTAR":0.00052893964,"MEAN_MOTION_DOT":0.00013825,"MEAN_MOTION_DDOT":0},{"OBJECT_NAME":"STARLINK-36063","OBJECT_ID":"2025-270U","EPOCH":"2026-03-09T00:11:02.414112","MEAN_MOTION":15.27597926,"ECCENTRICITY":5.016e-5,"INCLINATION":42.9991,"RA_OF_ASC_NODE":59.8441,"ARG_OF_PERICENTER":247.3094,"MEAN_ANOMALY":112.7705,"EPHEMERIS_TYPE":0,"CLASSIFICATION_TYPE":"U","NORAD_CAT_ID":66606,"ELEMENT_SET_NO":999,"REV_AT_EPOCH":1760,"BSTAR":0.00082352276,"MEAN_MOTION_DOT":0.00022481,"MEAN_MOTION_DDOT":0}]
